{"type": "FeatureCollection", "features": [ {"type": "Feature", "properties": {"norad_id": 66930, "name": "STARLINK-36206", "group": "last-30-days", "lat": -34.66652606836669, "lon": -53.94402841337424, "alt_km": 418.59953974372, "timestamp": "2025-12-27T11:23:18.580665+00:00", "meta": {"OBJECT_NAME": "STARLINK-36206", "OBJECT_ID": "2025-286F", "EPOCH": "2025-12-27T04:00:01.998720", "MEAN_MOTION": 15.52343994, "ECCENTRICITY": 0.0001032, "INCLINATION": 53.1598, "RA_OF_ASC_NODE": 338.7644, "ARG_OF_PERICENTER": 111.8426, "MEAN_ANOMALY": 282.3804, "EPHEMERIS_TYPE": 0, "CLASSIFICATION_TYPE": "U", "NORAD_CAT_ID": 66930, "ELEMENT_SET_NO": 999, "REV_AT_EPOCH": 430, "BSTAR": -0.034883, "MEAN_MOTION_DOT": -0.01939489, "MEAN_MOTION_DDOT": 0}, "tle": {"line1": "1 66930U 25286F   25361.16668980 -.01939489  00000+0 -34883-1 0  9999", "line2": "2 66930  53.1598 338.7644 0001032 111.8426 282.3804 15.52343994  4300"}}, "geometry": {"type": "Point", "coordinates": [-53.94402841337424, -34.66652606836669]}}, {"type": "Feature", "properties": {"norad_id": 66931, "name": "STARLINK-36130", "group": "last-30-days", "lat": -33.34444703758964, "lon": -52.27559378313913, "alt_km": 418.53414493353375, "timestamp": "2025-12-27T11:23:18.580675+00:00", "meta": {"OBJECT_NAME": "STARLINK-36130", "OBJECT_ID": "2025-286G", "EPOCH": "2025-12-27T04:00:01.998720", "MEAN_MOTION": 15.52325869, "ECCENTRICITY": 0.000107, "INCLINATION": 53.1594, "RA_OF_ASC_NODE": 338.7609, "ARG_OF_PERICENTER": 109.4056, "MEAN_ANOMALY": 286.7481, "EPHEMERIS_TYPE": 0, "CLASSIFICATION_TYPE": "U", "NORAD_CAT_ID": 66931, "ELEMENT_SET_NO": 999, "REV_AT_EPOCH": 430, "BSTAR": -0.034512, "MEAN_MOTION_DOT": -0.01885993, "MEAN_MOTION_DDOT": 0}, "tle": {"line1": "1 66931U 25286G   25361.16668980 -.01885993  00000+0 -34512-1 0  9999", "line2": "2 66931  53.1594 338.7609 0001070 109.4056 286.7481 15.52325869  4302"}}, "geometry": {"type": "Point", "coordinates": [-52.27559378313913, -33.34444703758964]}}, {"type": "Feature", "properties": {"norad_id": 66932, "name": "STARLINK-36177", "group": "last-30-days", "lat": -32.003068674152736, "lon": -50.66173388812564, "alt_km": 418.4591876624836, "timestamp": "2025-12-27T11:23:18.580685+00:00", "meta": {"OBJECT_NAME": "STARLINK-36177", "OBJECT_ID": "2025-286H", "EPOCH": "2025-12-27T04:00:01.998720", "MEAN_MOTION": 15.52342235, "ECCENTRICITY": 0.0001109, "INCLINATION": 53.1592, "RA_OF_ASC_NODE": 338.7559, "ARG_OF_PERICENTER": 112.7954, "MEAN_ANOMALY": 285.2584, "EPHEMERIS_TYPE": 0, "CLASSIFICATION_TYPE": "U", "NORAD_CAT_ID": 66932, "ELEMENT_SET_NO": 999, "REV_AT_EPOCH": 430, "BSTAR": -0.034683, "MEAN_MOTION_DOT": -0.01929439, "MEAN_MOTION_DDOT": 0}, "tle": {"line1": "1 66932U 25286H   25361.16668980 -.01929439  00000+0 -34683-1 0  9993", "line2": "2 66932  53.1592 338.7559 0001109 112.7954 285.2584 15.52342235  4306"}}, "geometry": {"type": "Point", "coordinates": [-50.66173388812564, -32.003068674152736]}}, {"type": "Feature", "properties": {"norad_id": 66933, "name": "STARLINK-36157", "group": "last-30-days", "lat": -30.641575787493757, "lon": -49.09289342603024, "alt_km": 418.3343776288493, "timestamp": "2025-12-27T11:23:18.580697+00:00", "meta": {"OBJECT_NAME": "STARLINK-36157", "OBJECT_ID": "2025-286J", "EPOCH": "2025-12-27T04:00:01.998720", "MEAN_MOTION": 15.52341538, "ECCENTRICITY": 0.0001167, "INCLINATION": 53.1589, "RA_OF_ASC_NODE": 338.7528, "ARG_OF_PERICENTER": 103.2664, "MEAN_ANOMALY": 296.7054, "EPHEMERIS_TYPE": 0, "CLASSIFICATION_TYPE": "U", "NORAD_CAT_ID": 66933, "ELEMENT_SET_NO": 999, "REV_AT_EPOCH": 430, "BSTAR": -0.034709, "MEAN_MOTION_DOT": -0.01930691, "MEAN_MOTION_DDOT": 0}, "tle": {"line1": "1 66933U 25286J   25361.16668980 -.01930691  00000+0 -34709-1 0  9995", "line2": "2 66933  53.1589 338.7528 0001167 103.2664 296.7054 15.52341538  4300"}}, "geometry": {"type": "Point", "coordinates": [-49.09289342603024, -30.641575787493757]}}, {"type": "Feature", "properties": {"norad_id": 66934, "name": "STARLINK-36153", "group": "last-30-days", "lat": -29.260558494981847, "lon": -47.56702333748116, "alt_km": 418.14305915866316, "timestamp": "2025-12-27T11:23:18.580707+00:00", "meta": {"OBJECT_NAME": "STARLINK-36153", "OBJECT_ID": "2025-286K", "EPOCH": "2025-12-27T04:00:01.998720", "MEAN_MOTION": 15.52340413, "ECCENTRICITY": 0.0001164, "INCLINATION": 53.1594, "RA_OF_ASC_NODE": 338.7486, "ARG_OF_PERICENTER": 93.3045, "MEAN_ANOMALY": 308.5875, "EPHEMERIS_TYPE": 0, "CLASSIFICATION_TYPE": "U", "NORAD_CAT_ID": 66934, "ELEMENT_SET_NO": 999, "REV_AT_EPOCH": 430, "BSTAR": -0.034747, "MEAN_MOTION_DOT": -0.01932546, "MEAN_MOTION_DDOT": 0}, "tle": {"line1": "1 66934U 25286K   25361.16668980 -.01932546  00000+0 -34747-1 0  9999", "line2": "2 66934  53.1594 338.7486 0001164  93.3045 308.5875 15.52340413  4303"}}, "geometry": {"type": "Point", "coordinates": [-47.56702333748116, -29.260558494981847]}}, {"type": "Feature", "properties": {"norad_id": 66935, "name": "STARLINK-36127", "group": "last-30-days", "lat": -27.85980017272536, "lon": -46.08009285469405, "alt_km": 418.2125187106485, "timestamp": "2025-12-27T11:23:18.580727+00:00", "meta": {"OBJECT_NAME": "STARLINK-36127", "OBJECT_ID": "2025-286L", "EPOCH": "2025-12-27T04:00:01.998720", "MEAN_MOTION": 15.52340648, "ECCENTRICITY": 0.0001201, "INCLINATION": 53.1596, "RA_OF_ASC_NODE": 338.7439, "ARG_OF_PERICENTER": 112.0984, "MEAN_ANOMALY": 291.7112, "EPHEMERIS_TYPE": 0, "CLASSIFICATION_TYPE": "U", "NORAD_CAT_ID": 66935, "ELEMENT_SET_NO": 999, "REV_AT_EPOCH": 430, "BSTAR": -0.034762, "MEAN_MOTION_DOT": -0.01933305, "MEAN_MOTION_DDOT": 0}, "tle": {"line1": "1 66935U 25286L   25361.16668980 -.01933305  00000+0 -34762-1 0  9991", "line2": "2 66935  53.1596 338.7439 0001201 112.0984 291.7112 15.52340648  4304"}}, "geometry": {"type": "Point", "coordinates": [-46.08009285469405, -27.85980017272536]}}, {"type": "Feature", "properties": {"norad_id": 66936, "name": "STARLINK-36160", "group": "last-30-days", "lat": -26.44680234966712, "lon": -44.633619920095484, "alt_km": 418.0388513275266, "timestamp": "2025-12-27T11:23:18.580741+00:00", "meta": {"OBJECT_NAME": "STARLINK-36160", "OBJECT_ID": "2025-286M", "EPOCH": "2025-12-27T04:00:01.998720", "MEAN_MOTION": 15.52341804, "ECCENTRICITY": 0.0001104, "INCLINATION": 53.1594, "RA_OF_ASC_NODE": 338.7408, "ARG_OF_PERICENTER": 111.5681, "MEAN_ANOMALY": 294.156, "EPHEMERIS_TYPE": 0, "CLASSIFICATION_TYPE": "U", "NORAD_CAT_ID": 66936, "ELEMENT_SET_NO": 999, "REV_AT_EPOCH": 430, "BSTAR": -0.03481, "MEAN_MOTION_DOT": -0.01935739, "MEAN_MOTION_DDOT": 0}, "tle": {"line1": "1 66936U 25286M   25361.16668980 -.01935739  00000+0 -34810-1 0  9999", "line2": "2 66936  53.1594 338.7408 0001104 111.5681 294.1560 15.52341804  4308"}}, "geometry": {"type": "Point", "coordinates": [-44.633619920095484, -26.44680234966712]}}, {"type": "Feature", "properties": {"norad_id": 66937, "name": "STARLINK-36165", "group": "last-30-days", "lat": -25.017757593013286, "lon": -43.221644326207645, "alt_km": 417.85329931356955, "timestamp": "2025-12-27T11:23:18.580753+00:00", "meta": {"OBJECT_NAME": "STARLINK-36165", "OBJECT_ID": "2025-286N", "EPOCH": "2025-12-27T04:00:01.998720", "MEAN_MOTION": 15.5233669, "ECCENTRICITY": 0.000101, "INCLINATION": 53.1594, "RA_OF_ASC_NODE": 338.7366, "ARG_OF_PERICENTER": 111.3279, "MEAN_ANOMALY": 296.3143, "EPHEMERIS_TYPE": 0, "CLASSIFICATION_TYPE": "U", "NORAD_CAT_ID": 66937, "ELEMENT_SET_NO": 999, "REV_AT_EPOCH": 430, "BSTAR": -0.034591, "MEAN_MOTION_DOT": -0.01890432, "MEAN_MOTION_DDOT": 0}, "tle": {"line1": "1 66937U 25286N   25361.16668980 -.01890432  00000+0 -34591-1 0  9996", "line2": "2 66937  53.1594 338.7366 0001010 111.3279 296.3143 15.52336690  4307"}}, "geometry": {"type": "Point", "coordinates": [-43.221644326207645, -25.017757593013286]}}, {"type": "Feature", "properties": {"norad_id": 66938, "name": "STARLINK-36155", "group": "last-30-days", "lat": -23.57545114180039, "lon": -41.842609621720705, "alt_km": 417.7143341794699, "timestamp": "2025-12-27T11:23:18.580765+00:00", "meta": {"OBJECT_NAME": "STARLINK-36155", "OBJECT_ID": "2025-286P", "EPOCH": "2025-12-27T04:00:01.998720", "MEAN_MOTION": 15.52337718, "ECCENTRICITY": 0.000101, "INCLINATION": 53.1596, "RA_OF_ASC_NODE": 338.7319, "ARG_OF_PERICENTER": 109.0984, "MEAN_ANOMALY": 300.4622, "EPHEMERIS_TYPE": 0, "CLASSIFICATION_TYPE": "U", "NORAD_CAT_ID": 66938, "ELEMENT_SET_NO": 999, "REV_AT_EPOCH": 430, "BSTAR": -0.034659, "MEAN_MOTION_DOT": -0.01927893, "MEAN_MOTION_DDOT": 0}, "tle": {"line1": "1 66938U 25286P   25361.16668980 -.01927893  00000+0 -34659-1 0  9994", "line2": "2 66938  53.1596 338.7319 0001010 109.0984 300.4622 15.52337718  4306"}}, "geometry": {"type": "Point", "coordinates": [-41.842609621720705, -23.57545114180039]}}, {"type": "Feature", "properties": {"norad_id": 66939, "name": "STARLINK-36154", "group": "last-30-days", "lat": -20.658351449291686, "lon": -39.17337425890204, "alt_km": 417.4937887570777, "timestamp": "2025-12-27T11:23:18.580775+00:00", "meta": {"OBJECT_NAME": "STARLINK-36154", "OBJECT_ID": "2025-286Q", "EPOCH": "2025-12-27T04:00:01.998720", "MEAN_MOTION": 15.5234232, "ECCENTRICITY": 0.0001083, "INCLINATION": 53.1594, "RA_OF_ASC_NODE": 338.7244, "ARG_OF_PERICENTER": 110.5351, "MEAN_ANOMALY": 302.8561, "EPHEMERIS_TYPE": 0, "CLASSIFICATION_TYPE": "U", "NORAD_CAT_ID": 66939, "ELEMENT_SET_NO": 999, "REV_AT_EPOCH": 430, "BSTAR": -0.034823, "MEAN_MOTION_DOT": -0.01936424, "MEAN_MOTION_DDOT": 0}, "tle": {"line1": "1 66939U 25286Q   25361.16668980 -.01936424  00000+0 -34823-1 0  9998", "line2": "2 66939  53.1594 338.7244 0001083 110.5351 302.8561 15.52342320  4300"}}, "geometry": {"type": "Point", "coordinates": [-39.17337425890204, -20.658351449291686]}}]}